GLOBALSTAR M024         
1 25883U 99043A   24118.57769765 -.00000074  00000+0 -34242-3 0  9999
2 25883  52.0020 238.3735 0002131 141.6771 304.0595 11.10160912 68701
GLOBALSTAR M027         
1 25884U 99043B   24118.50032800 -.00000021  00000+0  16196-2 0  9994
2 25884  52.0220 304.7562 0021674  42.0513 318.1939 11.04368620 95315
GLOBALSTAR M054         
1 25885U 99043C   24118.51469889 -.00000058  00000+0  34600-3 0  9998
2 25885  52.0104 141.7769 0004757 185.5572 344.0070 11.39202985 71672
GLOBALSTAR M053         
1 25886U 99043D   24118.63427102 -.00000072  00000+0 -96417-4 0  9996
2 25886  51.9994  65.5276 0003523  90.9968  79.9674 11.27654662 72565
GLOBALSTAR M050         
1 25908U 99049B   24118.47396919  .00000047  00000+0  15285-2 0  9992
2 25908  51.9974 177.9517 0008915 281.7240  90.9977 12.07433441 97977
GLOBALSTAR M033         
1 25909U 99049C   24118.57500436 -.00000065  00000+0  25536-3 0  9997
2 25909  51.9909  78.2114 0011710 133.7485 226.4334 12.20271011485002
GLOBALSTAR M055         
1 25910U 99049D   24118.23776318 -.00000069  00000+0  21172-3 0  9992
2 25910  51.9999 110.1506 0007111 348.9211  11.1483 12.29400134117343
